STARLINK-36050          
1 66602U 25270Q   25339.25002315 -.01892509  00000+0 -14782-1 0  9994
2 66602  42.9987 237.0465 0001770 277.6080 164.2450 15.74055648  3092
STARLINK-36048          
1 66603U 25270R   25339.25002315 -.01885130  00000+0 -14718-1 0  9996
2 66603  42.9989 237.0408 0001544 281.3997 162.3677 15.74053246  3092
STARLINK-35977          
1 66604U 25270S   25339.25002315 -.01892644  00000+0 -14785-1 0  9999
2 66604  42.9988 237.0361 0001460 275.7813 169.9051 15.74056683  3199
STARLINK-36052          
1 66605U 25270T   25339.25002315 -.01891786  00000+0 -14777-1 0  9997
2 66605  42.9989 237.0323 0001522 282.5743 165.0283 15.74056486  3191
STARLINK-36063          
1 66606U 25270U   25339.25002315 -.01883986  00000+0 -14710-1 0  9998
2 66606  42.9988 237.0217 0001654 277.9913 173.4501 15.74048689  3198
STARLINK-35993          
1 66607U 25270V   25339.25002315 -.01883036  00000+0 -14706-1 0  9990
2 66607  42.9989 237.0276 0001090 274.3138 175.2102 15.74048388  3091
STARLINK-36036          
1 66608U 25270W   25339.25002315 -.01888498  00000+0 -14749-1 0  9995
2 66608  42.9989 237.0173 0001563 272.7622 180.5933 15.74053208  3035
STARLINK-36034          
1 66609U 25270X   25339.25002315 -.01857741  00000+0 -14492-1 0  9998
2 66609  42.9988 237.0132 0001393 279.6485 175.6462 15.74023879  3037
STARLINK-35680          
1 66610U 25270Y   25339.25002315 -.01882468  00000+0 -14700-1 0  9996
2 66610  42.9987 237.0084 0001232 272.3525 184.8397 15.74048601  3300
STARLINK-35583          
1 66611U 25270Z   25339.25002315 -.01888612  00000+0 -14751-1 0  9990
2 66611  42.9988 237.0034 0001475 280.8157 178.2946 15.74051648  3303
STARLINK-36039          
1 66612U 25270AA  25339.25002315 -.01885644  00000+0 -14726-1 0  9995
2 66612  42.9988 236.9983 0001506 277.7785 183.2493 15.74049735  3196
STARLINK-36037          
1 66613U 25270AB  25339.25002315 -.01884495  00000+0 -14715-1 0  9997
2 66613  42.9987 236.9939 0001553 278.4437 184.4984 15.74050290  3197
