CCSDS_OMM_VERS = 2.0
CREATION_DATE  = 
ORIGINATOR     = 

OBJECT_NAME    = STARLINK-36050
OBJECT_ID      = 2025-270Q
CENTER_NAME    = EARTH
REF_FRAME      = TEME
TIME_SYSTEM    = UTC
MEAN_ELEMENT_THEORY = SGP/SGP4

EPOCH          = 2025-12-05T06:00:02.000160
MEAN_MOTION    = 15.74055648
ECCENTRICITY   = .00017702
INCLINATION    = 42.9987
RA_OF_ASC_NODE = 237.0465
ARG_OF_PERICENTER = 277.6080
MEAN_ANOMALY   = 164.2450

EPHEMERIS_TYPE = 0
CLASSIFICATION_TYPE = U
NORAD_CAT_ID   = 66602
ELEMENT_SET_NO = 999
REV_AT_EPOCH   = 309
BSTAR          = -.14781575E-1
MEAN_MOTION_DOT = -.1892509E-1
MEAN_MOTION_DDOT = 0

CCSDS_OMM_VERS = 2.0
CREATION_DATE  = 
ORIGINATOR     = 

OBJECT_NAME    = STARLINK-36048
OBJECT_ID      = 2025-270R
CENTER_NAME    = EARTH
REF_FRAME      = TEME
TIME_SYSTEM    = UTC
MEAN_ELEMENT_THEORY = SGP/SGP4

EPOCH          = 2025-12-05T06:00:02.000160
MEAN_MOTION    = 15.74053246
ECCENTRICITY   = .00015444
INCLINATION    = 42.9989
RA_OF_ASC_NODE = 237.0408
ARG_OF_PERICENTER = 281.3997
MEAN_ANOMALY   = 162.3677

EPHEMERIS_TYPE = 0
CLASSIFICATION_TYPE = U
NORAD_CAT_ID   = 66603
ELEMENT_SET_NO = 999
REV_AT_EPOCH   = 309
BSTAR          = -.14718439E-1
MEAN_MOTION_DOT = -.188513E-1
MEAN_MOTION_DDOT = 0

CCSDS_OMM_VERS = 2.0
CREATION_DATE  = 
ORIGINATOR     = 

OBJECT_NAME    = STARLINK-35977
OBJECT_ID      = 2025-270S
CENTER_NAME    = EARTH
REF_FRAME      = TEME
TIME_SYSTEM    = UTC
MEAN_ELEMENT_THEORY = SGP/SGP4

EPOCH          = 2025-12-05T06:00:02.000160
MEAN_MOTION    = 15.74056683
ECCENTRICITY   = .00014601
INCLINATION    = 42.9988
RA_OF_ASC_NODE = 237.0361
ARG_OF_PERICENTER = 275.7813
MEAN_ANOMALY   = 169.9051

EPHEMERIS_TYPE = 0
CLASSIFICATION_TYPE = U
NORAD_CAT_ID   = 66604
ELEMENT_SET_NO = 999
REV_AT_EPOCH   = 319
BSTAR          = -.14784676E-1
MEAN_MOTION_DOT = -.1892644E-1
MEAN_MOTION_DDOT = 0

CCSDS_OMM_VERS = 2.0
CREATION_DATE  = 
ORIGINATOR     = 

OBJECT_NAME    = STARLINK-36052
OBJECT_ID      = 2025-270T
CENTER_NAME    = EARTH
REF_FRAME      = TEME
TIME_SYSTEM    = UTC
MEAN_ELEMENT_THEORY = SGP/SGP4

EPOCH          = 2025-12-05T06:00:02.000160
MEAN_MOTION    = 15.74056486
ECCENTRICITY   = .00015227
INCLINATION    = 42.9989
RA_OF_ASC_NODE = 237.0323
ARG_OF_PERICENTER = 282.5743
MEAN_ANOMALY   = 165.0283

EPHEMERIS_TYPE = 0
CLASSIFICATION_TYPE = U
NORAD_CAT_ID   = 66605
ELEMENT_SET_NO = 999
REV_AT_EPOCH   = 319
BSTAR          = -.14776557E-1
MEAN_MOTION_DOT = -.1891786E-1
MEAN_MOTION_DDOT = 0

CCSDS_OMM_VERS = 2.0
CREATION_DATE  = 
ORIGINATOR     = 

OBJECT_NAME    = STARLINK-36063
OBJECT_ID      = 2025-270U
CENTER_NAME    = EARTH
REF_FRAME      = TEME
TIME_SYSTEM    = UTC
MEAN_ELEMENT_THEORY = SGP/SGP4

EPOCH          = 2025-12-05T06:00:02.000160
MEAN_MOTION    = 15.74048689
ECCENTRICITY   = .00016545
INCLINATION    = 42.9988
RA_OF_ASC_NODE = 237.0217
ARG_OF_PERICENTER = 277.9913
MEAN_ANOMALY   = 173.4501

EPHEMERIS_TYPE = 0
CLASSIFICATION_TYPE = U
NORAD_CAT_ID   = 66606
ELEMENT_SET_NO = 999
REV_AT_EPOCH   = 319
BSTAR          = -.14710163E-1
MEAN_MOTION_DOT = -.1883986E-1
MEAN_MOTION_DDOT = 0

CCSDS_OMM_VERS = 2.0
CREATION_DATE  = 
ORIGINATOR     = 

OBJECT_NAME    = STARLINK-35993
OBJECT_ID      = 2025-270V
CENTER_NAME    = EARTH
REF_FRAME      = TEME
TIME_SYSTEM    = UTC
MEAN_ELEMENT_THEORY = SGP/SGP4

EPOCH          = 2025-12-05T06:00:02.000160
MEAN_MOTION    = 15.74048388
ECCENTRICITY   = .00010901
INCLINATION    = 42.9989
RA_OF_ASC_NODE = 237.0276
ARG_OF_PERICENTER = 274.3138
MEAN_ANOMALY   = 175.2102

EPHEMERIS_TYPE = 0
CLASSIFICATION_TYPE = U
NORAD_CAT_ID   = 66607
ELEMENT_SET_NO = 999
REV_AT_EPOCH   = 309
BSTAR          = -.14706267E-1
MEAN_MOTION_DOT = -.1883036E-1
MEAN_MOTION_DDOT = 0

CCSDS_OMM_VERS = 2.0
CREATION_DATE  = 
ORIGINATOR     = 

OBJECT_NAME    = STARLINK-36036
OBJECT_ID      = 2025-270W
CENTER_NAME    = EARTH
REF_FRAME      = TEME
TIME_SYSTEM    = UTC
MEAN_ELEMENT_THEORY = SGP/SGP4

EPOCH          = 2025-12-05T06:00:02.000160
MEAN_MOTION    = 15.74053208
ECCENTRICITY   = .00015635
INCLINATION    = 42.9989
RA_OF_ASC_NODE = 237.0173
ARG_OF_PERICENTER = 272.7622
MEAN_ANOMALY   = 180.5933

EPHEMERIS_TYPE = 0
CLASSIFICATION_TYPE = U
NORAD_CAT_ID   = 66608
ELEMENT_SET_NO = 999
REV_AT_EPOCH   = 303
BSTAR          = -.14748677E-1
MEAN_MOTION_DOT = -.1888498E-1
MEAN_MOTION_DDOT = 0

CCSDS_OMM_VERS = 2.0
CREATION_DATE  = 
ORIGINATOR     = 

OBJECT_NAME    = STARLINK-36034
OBJECT_ID      = 2025-270X
CENTER_NAME    = EARTH
REF_FRAME      = TEME
TIME_SYSTEM    = UTC
MEAN_ELEMENT_THEORY = SGP/SGP4

EPOCH          = 2025-12-05T06:00:02.000160
MEAN_MOTION    = 15.74023879
ECCENTRICITY   = .00013931
INCLINATION    = 42.9988
RA_OF_ASC_NODE = 237.0132
ARG_OF_PERICENTER = 279.6485
MEAN_ANOMALY   = 175.6462

EPHEMERIS_TYPE = 0
CLASSIFICATION_TYPE = U
NORAD_CAT_ID   = 66609
ELEMENT_SET_NO = 999
REV_AT_EPOCH   = 303
BSTAR          = -.14491964E-1
MEAN_MOTION_DOT = -.1857741E-1
MEAN_MOTION_DDOT = 0

CCSDS_OMM_VERS = 2.0
CREATION_DATE  = 
ORIGINATOR     = 

OBJECT_NAME    = STARLINK-35680
OBJECT_ID      = 2025-270Y
CENTER_NAME    = EARTH
REF_FRAME      = TEME
TIME_SYSTEM    = UTC
MEAN_ELEMENT_THEORY = SGP/SGP4

EPOCH          = 2025-12-05T06:00:02.000160
MEAN_MOTION    = 15.74048601
ECCENTRICITY   = .00012321
INCLINATION    = 42.9987
RA_OF_ASC_NODE = 237.0084
ARG_OF_PERICENTER = 272.3525
MEAN_ANOMALY   = 184.8397

EPHEMERIS_TYPE = 0
CLASSIFICATION_TYPE = U
NORAD_CAT_ID   = 66610
ELEMENT_SET_NO = 999
REV_AT_EPOCH   = 330
BSTAR          = -.14699907E-1
MEAN_MOTION_DOT = -.1882468E-1
MEAN_MOTION_DDOT = 0

CCSDS_OMM_VERS = 2.0
CREATION_DATE  = 
ORIGINATOR     = 

OBJECT_NAME    = STARLINK-35583
OBJECT_ID      = 2025-270Z
CENTER_NAME    = EARTH
REF_FRAME      = TEME
TIME_SYSTEM    = UTC
MEAN_ELEMENT_THEORY = SGP/SGP4

EPOCH          = 2025-12-05T06:00:02.000160
MEAN_MOTION    = 15.74051648
ECCENTRICITY   = .00014753
INCLINATION    = 42.9988
RA_OF_ASC_NODE = 237.0034
ARG_OF_PERICENTER = 280.8157
MEAN_ANOMALY   = 178.2946

EPHEMERIS_TYPE = 0
CLASSIFICATION_TYPE = U
NORAD_CAT_ID   = 66611
ELEMENT_SET_NO = 999
REV_AT_EPOCH   = 330
BSTAR          = -.14751424E-1
MEAN_MOTION_DOT = -.1888612E-1
MEAN_MOTION_DDOT = 0

CCSDS_OMM_VERS = 2.0
CREATION_DATE  = 
ORIGINATOR     = 

OBJECT_NAME    = STARLINK-36039
OBJECT_ID      = 2025-270AA
CENTER_NAME    = EARTH
REF_FRAME      = TEME
TIME_SYSTEM    = UTC
MEAN_ELEMENT_THEORY = SGP/SGP4

EPOCH          = 2025-12-05T06:00:02.000160
MEAN_MOTION    = 15.74049735
ECCENTRICITY   = .00015065
INCLINATION    = 42.9988
RA_OF_ASC_NODE = 236.9983
ARG_OF_PERICENTER = 277.7785
MEAN_ANOMALY   = 183.2493

EPHEMERIS_TYPE = 0
CLASSIFICATION_TYPE = U
NORAD_CAT_ID   = 66612
ELEMENT_SET_NO = 999
REV_AT_EPOCH   = 319
BSTAR          = -.14725639E-1
MEAN_MOTION_DOT = -.1885644E-1
MEAN_MOTION_DDOT = 0

CCSDS_OMM_VERS = 2.0
CREATION_DATE  = 
ORIGINATOR     = 

OBJECT_NAME    = STARLINK-36037
OBJECT_ID      = 2025-270AB
CENTER_NAME    = EARTH
REF_FRAME      = TEME
TIME_SYSTEM    = UTC
MEAN_ELEMENT_THEORY = SGP/SGP4

EPOCH          = 2025-12-05T06:00:02.000160
MEAN_MOTION    = 15.74050290
ECCENTRICITY   = .0001553
INCLINATION    = 42.9987
RA_OF_ASC_NODE = 236.9939
ARG_OF_PERICENTER = 278.4437
MEAN_ANOMALY   = 184.4984

EPHEMERIS_TYPE = 0
CLASSIFICATION_TYPE = U
NORAD_CAT_ID   = 66613
ELEMENT_SET_NO = 999
REV_AT_EPOCH   = 319
BSTAR          = -.14714544E-1
MEAN_MOTION_DOT = -.1884495E-1
MEAN_MOTION_DDOT = 0

